CCSDS_OMM_VERS = 2.0
CREATION_DATE  = 
ORIGINATOR     = 

OBJECT_NAME    = STARLINK-36768
OBJECT_ID      = 2026-032G
CENTER_NAME    = EARTH
REF_FRAME      = TEME
TIME_SYSTEM    = UTC
MEAN_ELEMENT_THEORY = SGP/SGP4

EPOCH          = 2026-02-23T16:00:03.000096
MEAN_MOTION    = 15.91790036
ECCENTRICITY   = .0001205
INCLINATION    = 97.2857
RA_OF_ASC_NODE = 240.4033
ARG_OF_PERICENTER = 77.7149
MEAN_ANOMALY   = 235.0921

EPHEMERIS_TYPE = 0
CLASSIFICATION_TYPE = U
NORAD_CAT_ID   = 67803
ELEMENT_SET_NO = 999
REV_AT_EPOCH   = 252
BSTAR          = -.57068E-2
MEAN_MOTION_DOT = -.184225E-1
MEAN_MOTION_DDOT = .93257E-3

CCSDS_OMM_VERS = 2.0
CREATION_DATE  = 
ORIGINATOR     = 

OBJECT_NAME    = STARLINK-36792
OBJECT_ID      = 2026-032H
CENTER_NAME    = EARTH
REF_FRAME      = TEME
TIME_SYSTEM    = UTC
MEAN_ELEMENT_THEORY = SGP/SGP4

EPOCH          = 2026-02-23T16:00:03.000096
MEAN_MOTION    = 15.92110114
ECCENTRICITY   = .0001197
INCLINATION    = 97.2852
RA_OF_ASC_NODE = 240.4057
ARG_OF_PERICENTER = 75.9973
MEAN_ANOMALY   = 243.2666

EPHEMERIS_TYPE = 0
CLASSIFICATION_TYPE = U
NORAD_CAT_ID   = 67804
ELEMENT_SET_NO = 999
REV_AT_EPOCH   = 246
BSTAR          = -.55972E-2
MEAN_MOTION_DOT = -.1836849E-1
MEAN_MOTION_DDOT = .9305E-3

CCSDS_OMM_VERS = 2.0
CREATION_DATE  = 
ORIGINATOR     = 

OBJECT_NAME    = STARLINK-36782
OBJECT_ID      = 2026-032J
CENTER_NAME    = EARTH
REF_FRAME      = TEME
TIME_SYSTEM    = UTC
MEAN_ELEMENT_THEORY = SGP/SGP4

EPOCH          = 2026-02-23T16:00:03.000096
MEAN_MOTION    = 15.92255450
ECCENTRICITY   = .0001181
INCLINATION    = 97.2851
RA_OF_ASC_NODE = 240.4071
ARG_OF_PERICENTER = 76.5124
MEAN_ANOMALY   = 245.7370

EPHEMERIS_TYPE = 0
CLASSIFICATION_TYPE = U
NORAD_CAT_ID   = 67805
ELEMENT_SET_NO = 999
REV_AT_EPOCH   = 252
BSTAR          = -.55524E-2
MEAN_MOTION_DOT = -.1835825E-1
MEAN_MOTION_DDOT = .93091E-3

CCSDS_OMM_VERS = 2.0
CREATION_DATE  = 
ORIGINATOR     = 

OBJECT_NAME    = STARLINK-36389
OBJECT_ID      = 2026-032K
CENTER_NAME    = EARTH
REF_FRAME      = TEME
TIME_SYSTEM    = UTC
MEAN_ELEMENT_THEORY = SGP/SGP4

EPOCH          = 2026-02-23T16:00:03.000096
MEAN_MOTION    = 15.92465752
ECCENTRICITY   = .0001187
INCLINATION    = 97.2849
RA_OF_ASC_NODE = 240.4088
ARG_OF_PERICENTER = 73.5976
MEAN_ANOMALY   = 252.7363

EPHEMERIS_TYPE = 0
CLASSIFICATION_TYPE = U
NORAD_CAT_ID   = 67806
ELEMENT_SET_NO = 999
REV_AT_EPOCH   = 252
BSTAR          = -.54867E-2
MEAN_MOTION_DOT = -.1833878E-1
MEAN_MOTION_DDOT = .93107E-3

CCSDS_OMM_VERS = 2.0
CREATION_DATE  = 
ORIGINATOR     = 

OBJECT_NAME    = STARLINK-36382
OBJECT_ID      = 2026-032L
CENTER_NAME    = EARTH
REF_FRAME      = TEME
TIME_SYSTEM    = UTC
MEAN_ELEMENT_THEORY = SGP/SGP4

EPOCH          = 2026-02-23T16:00:03.000096
MEAN_MOTION    = 15.92631211
ECCENTRICITY   = .0001243
INCLINATION    = 97.2846
RA_OF_ASC_NODE = 240.4099
ARG_OF_PERICENTER = 72.7678
MEAN_ANOMALY   = 256.9443

EPHEMERIS_TYPE = 0
CLASSIFICATION_TYPE = U
NORAD_CAT_ID   = 67807
ELEMENT_SET_NO = 999
REV_AT_EPOCH   = 246
BSTAR          = -.54218E-2
MEAN_MOTION_DOT = -.182781E-1
MEAN_MOTION_DDOT = .92689E-3

CCSDS_OMM_VERS = 2.0
CREATION_DATE  = 
ORIGINATOR     = 

OBJECT_NAME    = STARLINK-36811
OBJECT_ID      = 2026-032M
CENTER_NAME    = EARTH
REF_FRAME      = TEME
TIME_SYSTEM    = UTC
MEAN_ELEMENT_THEORY = SGP/SGP4

EPOCH          = 2026-02-23T16:00:03.000096
MEAN_MOTION    = 15.92839669
ECCENTRICITY   = .0001184
INCLINATION    = 97.2845
RA_OF_ASC_NODE = 240.4123
ARG_OF_PERICENTER = 69.8777
MEAN_ANOMALY   = 263.8734

EPHEMERIS_TYPE = 0
CLASSIFICATION_TYPE = U
NORAD_CAT_ID   = 67808
ELEMENT_SET_NO = 999
REV_AT_EPOCH   = 252
BSTAR          = -.53568E-2
MEAN_MOTION_DOT = -.1825514E-1
MEAN_MOTION_DDOT = .9267E-3

CCSDS_OMM_VERS = 2.0
CREATION_DATE  = 
ORIGINATOR     = 

OBJECT_NAME    = STARLINK-36795
OBJECT_ID      = 2026-032N
CENTER_NAME    = EARTH
REF_FRAME      = TEME
TIME_SYSTEM    = UTC
MEAN_ELEMENT_THEORY = SGP/SGP4

EPOCH          = 2026-02-23T16:00:03.000096
MEAN_MOTION    = 15.93036964
ECCENTRICITY   = .0001212
INCLINATION    = 97.2845
RA_OF_ASC_NODE = 240.4137
ARG_OF_PERICENTER = 71.0674
MEAN_ANOMALY   = 266.5465

EPHEMERIS_TYPE = 0
CLASSIFICATION_TYPE = U
NORAD_CAT_ID   = 67809
ELEMENT_SET_NO = 999
REV_AT_EPOCH   = 252
BSTAR          = -.52949E-2
MEAN_MOTION_DOT = -.1823019E-1
MEAN_MOTION_DDOT = .92622E-3

CCSDS_OMM_VERS = 2.0
CREATION_DATE  = 
ORIGINATOR     = 

OBJECT_NAME    = STARLINK-36807
OBJECT_ID      = 2026-032P
CENTER_NAME    = EARTH
REF_FRAME      = TEME
TIME_SYSTEM    = UTC
MEAN_ELEMENT_THEORY = SGP/SGP4

EPOCH          = 2026-02-23T16:00:03.000096
MEAN_MOTION    = 15.93193148
ECCENTRICITY   = .0001158
INCLINATION    = 97.2842
RA_OF_ASC_NODE = 240.4149
ARG_OF_PERICENTER = 74.4963
MEAN_ANOMALY   = 266.3184

EPHEMERIS_TYPE = 0
CLASSIFICATION_TYPE = U
NORAD_CAT_ID   = 67810
ELEMENT_SET_NO = 999
REV_AT_EPOCH   = 252
BSTAR          = -.52351E-2
MEAN_MOTION_DOT = -.1817169E-1
MEAN_MOTION_DDOT = .92216E-3

CCSDS_OMM_VERS = 2.0
CREATION_DATE  = 
ORIGINATOR     = 

OBJECT_NAME    = STARLINK-36733
OBJECT_ID      = 2026-032Q
CENTER_NAME    = EARTH
REF_FRAME      = TEME
TIME_SYSTEM    = UTC
MEAN_ELEMENT_THEORY = SGP/SGP4

EPOCH          = 2026-02-23T16:00:03.000096
MEAN_MOTION    = 15.93404989
ECCENTRICITY   = .0001243
INCLINATION    = 97.2837
RA_OF_ASC_NODE = 240.4164
ARG_OF_PERICENTER = 66.1410
MEAN_ANOMALY   = 278.8461

EPHEMERIS_TYPE = 0
CLASSIFICATION_TYPE = U
NORAD_CAT_ID   = 67811
ELEMENT_SET_NO = 999
REV_AT_EPOCH   = 252
BSTAR          = -.5157E-2
MEAN_MOTION_DOT = -.1810016E-1
MEAN_MOTION_DDOT = .91741E-3

CCSDS_OMM_VERS = 2.0
CREATION_DATE  = 
ORIGINATOR     = 

OBJECT_NAME    = STARLINK-36377
OBJECT_ID      = 2026-032R
CENTER_NAME    = EARTH
REF_FRAME      = TEME
TIME_SYSTEM    = UTC
MEAN_ELEMENT_THEORY = SGP/SGP4

EPOCH          = 2026-02-23T16:00:03.000096
MEAN_MOTION    = 15.93939371
ECCENTRICITY   = .0001145
INCLINATION    = 97.2833
RA_OF_ASC_NODE = 240.4215
ARG_OF_PERICENTER = 69.3142
MEAN_ANOMALY   = 286.2566

EPHEMERIS_TYPE = 0
CLASSIFICATION_TYPE = U
NORAD_CAT_ID   = 67812
ELEMENT_SET_NO = 999
REV_AT_EPOCH   = 252
BSTAR          = -.49878E-2
MEAN_MOTION_DOT = -.1800357E-1
MEAN_MOTION_DDOT = .91335E-3

CCSDS_OMM_VERS = 2.0
CREATION_DATE  = 
ORIGINATOR     = 

OBJECT_NAME    = STARLINK-36732
OBJECT_ID      = 2026-032S
CENTER_NAME    = EARTH
REF_FRAME      = TEME
TIME_SYSTEM    = UTC
MEAN_ELEMENT_THEORY = SGP/SGP4

EPOCH          = 2026-02-23T16:00:03.000096
MEAN_MOTION    = 15.93776998
ECCENTRICITY   = .0001123
INCLINATION    = 97.2832
RA_OF_ASC_NODE = 240.4191
ARG_OF_PERICENTER = 69.8331
MEAN_ANOMALY   = 282.5083

EPHEMERIS_TYPE = 0
CLASSIFICATION_TYPE = U
NORAD_CAT_ID   = 67813
ELEMENT_SET_NO = 999
REV_AT_EPOCH   = 252
BSTAR          = -.50338E-2
MEAN_MOTION_DOT = -.1801553E-1
MEAN_MOTION_DDOT = .91294E-3

CCSDS_OMM_VERS = 2.0
CREATION_DATE  = 
ORIGINATOR     = 

OBJECT_NAME    = STARLINK-36767
OBJECT_ID      = 2026-032T
CENTER_NAME    = EARTH
REF_FRAME      = TEME
TIME_SYSTEM    = UTC
MEAN_ELEMENT_THEORY = SGP/SGP4

EPOCH          = 2026-02-23T16:00:03.000096
MEAN_MOTION    = 15.93622551
ECCENTRICITY   = .0001248
INCLINATION    = 97.2833
RA_OF_ASC_NODE = 240.4178
ARG_OF_PERICENTER = 64.8477
MEAN_ANOMALY   = 284.3347

EPHEMERIS_TYPE = 0
CLASSIFICATION_TYPE = U
NORAD_CAT_ID   = 67814
ELEMENT_SET_NO = 999
REV_AT_EPOCH   = 252
BSTAR          = -.5091E-2
MEAN_MOTION_DOT = -.1807313E-1
MEAN_MOTION_DDOT = .91692E-3

